CTC1_L_00628007-03
1 10062U 24704AN  26075.70039352  .00000000  00000+0  00000-0 0  9994
2 10062  50.0000 180.0000 0000000   0.0000 144.0000  4.14196107    18
CTC1_L_00628007-04
1 10063U 23199CU  26075.70039352  .00000000  00000+0  00000-0 0  9992
2 10063  50.0000 180.0000 0000000   0.0000 180.0000  4.14196107    19
CTC1_L_00628007-05
1 10064U 24854QX  26075.70039352  .00000000  00000+0  00000-0 0  9992
2 10064  50.0000 180.0000 0000000   0.0000 216.0000  4.14196107    10
CTC1_L_00628007-06
1 10065U 24652CB  26075.70039352  .00000000  00000+0  00000-0 0  9999
2 10065  50.0000 180.0000 0000000   0.0000 252.0000  4.14196107    11
CTC1_L_00628007-07
1 10066U 23408JB  26075.70039352  .00000000  00000+0  00000-0 0  9998
2 10066  50.0000 180.0000 0000000   0.0000 288.0000  4.14196107    11
CTC1_L_00628007-08
1 10067U 24697BS  26075.70039352  .00000000  00000+0  00000-0 0  9990
2 10067  50.0000 180.0000 0000000   0.0000 324.0000  4.14196107    13
CTC1_L_00628007-09
1 10068U 23503MR  26075.70039352  .00000000  00000+0  00000-0 0  9996
2 10068  50.0000 180.0000 0000000   0.0000   0.0000  4.14196107    15
CTC1_L_00628007-10
1 10069U 24962CL  26075.70039352  .00000000  00000+0  00000-0 0  9997
2 10069  50.0000 180.0000 0000000   0.0000  36.0000  4.14196107    15
CTC1_L_00628008-01
1 10070U 26454GQ  26075.70039352  .00000000  00000+0  00000-0 0  9997
2 10070  50.0000 210.0000 0000000   0.0000  84.0000  4.14196107    14
CTC1_L_00628008-02
1 10071U 24484OR  26075.70039352  .00000000  00000+0  00000-0 0  9999
2 10071  50.0000 210.0000 0000000   0.0000 120.0000  4.14196107    16
CTC1_L_00628008-03
1 10072U 25938XF  26075.70039352  .00000000  00000+0  00000-0 0  9995
2 10072  50.0000 210.0000 0000000   0.0000 156.0000  4.14196107    16
CTC1_L_00628008-04
1 10073U 22056AX  26075.70039352  .00000000  00000+0  00000-0 0  9994
2 10073  50.0000 210.0000 0000000   0.0000 192.0000  4.14196107    17
CTC1_L_00628008-05
1 10074U 25391CT  26075.70039352  .00000000  00000+0  00000-0 0  9990
2 10074  50.0000 210.0000 0000000   0.0000 228.0000  4.14196107    18
CTC1_L_00628008-06
1 10075U 25512YJ  26075.70039352  .00000000  00000+0  00000-0 0  9996
2 10075  50.0000 210.0000 0000000   0.0000 264.0000  4.14196107    19
CTC1_L_00628008-07
1 10076U 24435ZC  26075.70039352  .00000000  00000+0  00000-0 0  9990
2 10076  50.0000 210.0000 0000000   0.0000 300.0000  4.14196107    11
CTC1_L_00628008-08
1 10077U 22254VI  26075.70039352  .00000000  00000+0  00000-0 0  9998
2 10077  50.0000 210.0000 0000000   0.0000 336.0000  4.14196107    11
CTC1_L_00628008-09
1 10078U 23357SB  26075.70039352  .00000000  00000+0  00000-0 0  9994
2 10078  50.0000 210.0000 0000000   0.0000  12.0000  4.14196107    13
CTC1_L_00628008-10
1 10079U 23507J   26075.70039352  .00000000  00000+0  00000-0 0  9992
2 10079  50.0000 210.0000 0000000   0.0000  48.0000  4.14196107    13
CTC1_L_00628009-01
1 10080U 24247BP  26075.70039352  .00000000  00000+0  00000-0 0  9996
2 10080  50.0000 240.0000 0000000   0.0000  96.0000  4.14196107    11
CTC1_L_00628009-02
1 10081U 22780DO  26075.70039352  .00000000  00000+0  00000-0 0  9997
2 10081  50.0000 240.0000 0000000   0.0000 132.0000  4.14196107    13
CTC1_L_00628009-03
1 10082U 24395TF  26075.70039352  .00000000  00000+0  00000-0 0  9992
2 10082  50.0000 240.0000 0000000   0.0000 168.0000  4.14196107    13
CTC1_L_00628009-04
1 10083U 26197LG  26075.70039352  .00000000  00000+0  00000-0 0  9995
2 10083  50.0000 240.0000 0000000   0.0000 204.0000  4.14196107    15
CTC1_L_00628009-05
1 10084U 24895JL  26075.70039352  .00000000  00000+0  00000-0 0  9999
2 10084  50.0000 240.0000 0000000   0.0000 240.0000  4.14196107    16
CTC1_L_00628009-06
1 10085U 22933KO  26075.70039352  .00000000  00000+0  00000-0 0  9991
2 10085  50.0000 240.0000 0000000   0.0000 276.0000  4.14196107    16
CTC1_L_00628009-07
1 10086U 22538DY  26075.70039352  .00000000  00000+0  00000-0 0  9993
2 10086  50.0000 240.0000 0000000   0.0000 312.0000  4.14196107    18
CTC1_L_00628009-08
1 10087U 22168IR  26075.70039352  .00000000  00000+0  00000-0 0  9993
2 10087  50.0000 240.0000 0000000   0.0000 348.0000  4.14196107    18
CTC1_L_00628009-09
1 10088U 25688BR  26075.70039352  .00000000  00000+0  00000-0 0  9994
2 10088  50.0000 240.0000 0000000   0.0000  24.0000  4.14196107    10
CTC1_L_00628009-10
1 10089U 22654NN  26075.70039352  .00000000  00000+0  00000-0 0  9995
2 10089  50.0000 240.0000 0000000   0.0000  60.0000  4.14196107    11
CTC1_L_00628010-01
1 10090U 25633NO  26075.70039352  .00000000  00000+0  00000-0 0  9997
2 10090  50.0000 270.0000 0000000   0.0000 108.0000  4.14196107    19
CTC1_L_00628010-02
1 10091U 22667DY  26075.70039352  .00000000  00000+0  00000-0 0  9992
2 10091  50.0000 270.0000 0000000   0.0000 144.0000  4.14196107    10
CTC1_L_00628010-03
1 10092U 22675IZ  26075.70039352  .00000000  00000+0  00000-0 0  9992
2 10092  50.0000 270.0000 0000000   0.0000 180.0000  4.14196107    11
CTC1_L_00628010-04
1 10093U 25904HO  26075.70039352  .00000000  00000+0  00000-0 0  9991
2 10093  50.0000 270.0000 0000000   0.0000 216.0000  4.14196107    12
CTC1_L_00628010-05
1 10094U 22002WB  26075.70039352  .00000000  00000+0  00000-0 0  9998
2 10094  50.0000 270.0000 0000000   0.0000 252.0000  4.14196107    13
CTC1_L_00628010-06
1 10095U 26370YI  26075.70039352  .00000000  00000+0  00000-0 0  9991
2 10095  50.0000 270.0000 0000000   0.0000 288.0000  4.14196107    13
CTC1_L_00628010-07
1 10096U 26751EX  26075.70039352  .00000000  00000+0  00000-0 0  9995
2 10096  50.0000 270.0000 0000000   0.0000 324.0000  4.14196107    15
CTC1_L_00628010-08
1 10097U 23846RY  26075.70039352  .00000000  00000+0  00000-0 0  9998
2 10097  50.0000 270.0000 0000000   0.0000   0.0000  4.14196107    17
CTC1_L_00628010-09
1 10098U 25747CK  26075.70039352  .00000000  00000+0  00000-0 0  9991
2 10098  50.0000 270.0000 0000000   0.0000  36.0000  4.14196107    17
CTC1_L_00628010-10
1 10099U 22071CU  26075.70039352  .00000000  00000+0  00000-0 0  9999
2 10099  50.0000 270.0000 0000000   0.0000  72.0000  4.14196107    18
CTC1_L_00628011-01
1 10100U 25156LF  26075.70039352  .00000000  00000+0  00000-0 0  9999
2 10100  50.0000 300.0000 0000000   0.0000 120.0000  4.14196107    19
CTC1_L_00628011-02
1 10101U 26262BX  26075.70039352  .00000000  00000+0  00000-0 0  9999
2 10101  50.0000 300.0000 0000000   0.0000 156.0000  4.14196107    19
CTC1_L_00628011-03
1 10102U 25552O   26075.70039352  .00000000  00000+0  00000-0 0  9991
2 10102  50.0000 300.0000 0000000   0.0000 192.0000  4.14196107    10
CTC1_L_00628011-04
1 10103U 22262MW  26075.70039352  .00000000  00000+0  00000-0 0  9997
2 10103  50.0000 300.0000 0000000   0.0000 228.0000  4.14196107    11
CTC1_L_00628011-05
1 10104U 25692LP  26075.70039352  .00000000  00000+0  00000-0 0  9998
2 10104  50.0000 300.0000 0000000   0.0000 264.0000  4.14196107    12
CTC1_L_00628011-06
1 10105U 23415UY  26075.70039352  .00000000  00000+0  00000-0 0  9990
2 10105  50.0000 300.0000 0000000   0.0000 300.0000  4.14196107    14
CTC1_L_00628011-07
1 10106U 24250LJ  26075.70039352  .00000000  00000+0  00000-0 0  9999
2 10106  50.0000 300.0000 0000000   0.0000 336.0000  4.14196107    14
CTC1_L_00628011-08
1 10107U 26028KA  26075.70039352  .00000000  00000+0  00000-0 0  9995
2 10107  50.0000 300.0000 0000000   0.0000  12.0000  4.14196107    16
CTC1_L_00628011-09
1 10108U 24004XA  26075.70039352  .00000000  00000+0  00000-0 0  9998
2 10108  50.0000 300.0000 0000000   0.0000  48.0000  4.14196107    16
CTC1_L_00628011-10
1 10109U 24633QQ  26075.70039352  .00000000  00000+0  00000-0 0  9997
2 10109  50.0000 300.0000 0000000   0.0000  84.0000  4.14196107    17
CTC1_L_00628012-01
1 10110U 22790PI  26075.70039352  .00000000  00000+0  00000-0 0  9991
2 10110  50.0000 330.0000 0000000   0.0000 132.0000  4.14196107    16
CTC1_L_00628012-02
1 10111U 22745KB  26075.70039352  .00000000  00000+0  00000-0 0  9992
2 10111  50.0000 330.0000 0000000   0.0000 168.0000  4.14196107    16
CTC1_L_00628012-03
1 10112U 25824II  26075.70039352  .00000000  00000+0  00000-0 0  9994
2 10112  50.0000 330.0000 0000000   0.0000 204.0000  4.14196107    18
CTC1_L_00628012-04
1 10113U 26795ZS  26075.70039352  .00000000  00000+0  00000-0 0  9993
2 10113  50.0000 330.0000 0000000   0.0000 240.0000  4.14196107    19
CTC1_L_00628012-05
1 10114U 24898MV  26075.70039352  .00000000  00000+0  00000-0 0  9996
2 10114  50.0000 330.0000 0000000   0.0000 276.0000  4.14196107    19
CTC1_L_00628012-06
1 10115U 25580LK  26075.70039352  .00000000  00000+0  00000-0 0  9996
2 10115  50.0000 330.0000 0000000   0.0000 312.0000  4.14196107    11
CTC1_L_00628012-07
1 10116U 26226PN  26075.70039352  .00000000  00000+0  00000-0 0  9995
2 10116  50.0000 330.0000 0000000   0.0000 348.0000  4.14196107    11
CTC1_L_00628012-08
1 10117U 22932KX  26075.70039352  .00000000  00000+0  00000-0 0  9996
2 10117  50.0000 330.0000 0000000   0.0000  24.0000  4.14196107    13
CTC1_L_00628012-09
1 10118U 25831FB  26075.70039352  .00000000  00000+0  00000-0 0  9998
2 10118  50.0000 330.0000 0000000   0.0000  60.0000  4.14196107    14
CTC1_L_00628012-10
1 10119U 22081VU  26075.70039352  .00000000  00000+0  00000-0 0  9993
2 10119  50.0000 330.0000 0000000   0.0000  96.0000  4.14196107    14
